{"epoch":1784902576,"count":18312,"objects":[{"id":"39426","name":"CINEMA 3","type":"PAYLOAD","l1":"1 39426U 13066L   26205.30203931  .00001473  00000-0  19578-3 0  9994","l2":"2 39426  97.8368 116.5233 0091335  91.8924 269.2751 14.78372482679934"},{"id":"39427","name":"TRITON 1","type":"PAYLOAD","l1":"1 39427U 13066M   26205.30148841  .00002038  00000-0  24667-3 0  9996","l2":"2 39427  97.8207 114.2589 0091221 112.8488 248.2390 14.81822730679586"},{"id":"39428","name":"DELFI-N3XT","type":"PAYLOAD","l1":"1 39428U 13066N   26205.31835548  .00009359  00000-0  80337-3 0  9994","l2":"2 39428  97.8308 125.5991 0075867  83.3433 277.6415 14.95451440680173"},{"id":"39430","name":"GOMX 1","type":"PAYLOAD","l1":"1 39430U 13066Q   26205.29508127  .00001196  00000-0  18579-3 0  9994","l2":"2 39430  97.6471  43.4167 0127425 318.8586  40.3066 14.69558452675365"},{"id":"39431","name":"BRITE-PL","type":"PAYLOAD","l1":"1 39431U 13066R   26205.28250884  .00000541  00000-0  11802-3 0  9993","l2":"2 39431  97.7984 314.9663 0188440 255.7321 102.2885 14.51394869669319"},{"id":"39432","name":"ICUBE 1","type":"PAYLOAD","l1":"1 39432U 13066S   26204.90690989  .00012858  00000-0  49116-3 0  9999","l2":"2 39432  97.5711 191.0591 0015500 193.4072 166.6757 15.26655182690011"},{"id":"39438","name":"VELOX-P 2","type":"PAYLOAD","l1":"1 39438U 13066Y   26204.35498485  .00002261  00000-0  21633-3 0  9992","l2":"2 39438  97.8761 155.7697 0051398 221.7381 137.9913 14.93280999683236"},{"id":"39440","name":"CUBEBUG 2","type":"PAYLOAD","l1":"1 39440U 13066AA  26205.30394872  .00003060  00000-0  28413-3 0  9997","l2":"2 39440  97.8914 154.4500 0055518 264.3624  95.1262 14.94014397682531"},{"id":"39441","name":"NEE 02 KRYSAOR","type":"PAYLOAD","l1":"1 39441U 13066AB  26205.29365380  .00002107  00000-0  23434-3 0  9997","l2":"2 39441  97.8896 144.2491 0064664 309.0576  50.4896 14.86769248681711"},{"id":"39444","name":"FUNCUBE 1","type":"PAYLOAD","l1":"1 39444U 13066AE  26204.90812879  .00007483  00000-0  45787-3 0  9994","l2":"2 39444  97.8299 177.1366 0038119  79.5292 281.0228 15.09916203685207"},{"id":"39445","name":"HINCUBE","type":"PAYLOAD","l1":"1 39445U 13066AF  26204.83496739  .00006792  00000-0  43147-3 0  9990","l2":"2 39445  97.7992 173.9219 0034990  86.5073 274.0156 15.08676437685052"},{"id":"39446","name":"UWE-3","type":"PAYLOAD","l1":"1 39446U 13066AG  26205.30915504  .00003722  00000-0  31926-3 0  9992","l2":"2 39446  97.8728 161.6441 0047941 193.4581 166.5366 14.97251576683139"},{"id":"39469","name":"MCUBED-2","type":"PAYLOAD","l1":"1 39469U 13072H   26205.26861268  .00022224  00000-0  79465-3 0  9994","l2":"2 39469 120.4878 135.3354 0148370  57.9586 303.5805 15.19060399123463"},{"id":"39471","name":"IPEX","type":"PAYLOAD","l1":"1 39471U 13072K   26205.29307997  .00009349  00000-0  44148-3 0  9997","l2":"2 39471 120.4678  79.4540 0169873  41.0959 320.2769 15.08517861120830"},{"id":"39483","name":"COSMOS 2488","type":"PAYLOAD","l1":"1 39483U 13076A   26205.30734927  .00000017  00000-0  51267-4 0  9997","l2":"2 39483  82.4857 145.5708 0020287  18.4758 341.7054 12.42906632570501"},{"id":"39484","name":"COSMOS 2489","type":"PAYLOAD","l1":"1 39484U 13076B   26205.28333100 -.00000037  00000-0 -33860-3 0  9995","l2":"2 39484  82.4894 146.9767 0022101  18.1917 341.9949 12.42880320570559"},{"id":"39485","name":"COSMOS 2490","type":"PAYLOAD","l1":"1 39485U 13076C   26205.25526713  .00000060  00000-0  35817-3 0  9995","l2":"2 39485  82.4840 145.0455 0022568  33.3188 326.9307 12.42879560570488"},{"id":"39492","name":"AIST 1","type":"PAYLOAD","l1":"1 39492U 13078C   26205.27921705  .00000877  00000-0  75335-4 0  9993","l2":"2 39492  82.4136 234.9393 0017617 148.2668 211.9620 14.96150828680798"},{"id":"39731","name":"KAZEOSAT 1","type":"PAYLOAD","l1":"1 39731U 14024A   26205.28180645  .00000088  00000-0  39665-4 0  9992","l2":"2 39731  98.3190 276.8022 0001206  89.6612 270.4715 14.42039650643905"},{"id":"39761","name":"COSMOS 2496","type":"PAYLOAD","l1":"1 39761U 14028A   26205.29323448 -.00000113  00000-0 -88787-3 0  9999","l2":"2 39761  82.4441  85.4895 0020470   1.6142 358.5000 12.42879238552129"},{"id":"39762","name":"COSMOS 2497","type":"PAYLOAD","l1":"1 39762U 14028B   26205.26804274 -.00000103  00000-0 -81220-3 0  9992","l2":"2 39762  82.4490  87.2094 0020923 356.6530   3.4406 12.42895170552121"},{"id":"39763","name":"COSMOS 2498","type":"PAYLOAD","l1":"1 39763U 14028C   26205.32357353 -.00000032  00000-0 -29800-3 0  9998","l2":"2 39763  82.4450  85.6456 0021615 356.0243   4.0661 12.42981063552167"},{"id":"39765","name":"COSMOS 2499","type":"PAYLOAD","l1":"1 39765U 14028E   26205.32251863  .00000019  00000-0  37262-4 0  9994","l2":"2 39765  82.4464 227.3690 0230272 274.4798  83.0033 12.82903420569789"},{"id":"40011","name":"HODOYOSHI 4","type":"PAYLOAD","l1":"1 40011U 14033B   26205.28413983  .00001542  00000-0  17201-3 0  9996","l2":"2 40011  97.5471  28.3196 0023477 178.5545 181.5745 14.88208025654327"},{"id":"40012","name":"UNISAT 6","type":"PAYLOAD","l1":"1 40012U 14033C   26205.31179794  .00002374  00000-0  25783-3 0  9998","l2":"2 40012  97.7919 357.3831 0043613 307.0835  52.6398 14.88397654651688"},{"id":"40013","name":"DEIMOS 2","type":"PAYLOAD","l1":"1 40013U 14033D   26205.29350519  .00000745  00000-0  75377-4 0  9997","l2":"2 40013  97.5786  78.4710 0001480 104.0521 256.0864 14.93814485643264"},{"id":"40014","name":"BUGSAT 1","type":"PAYLOAD","l1":"1 40014U 14033E   26205.26810728  .00007205  00000-0  37556-3 0  9992","l2":"2 40014  98.0427 299.9949 0028676  56.2653 304.1305 15.15957791661456"},{"id":"40016","name":"SAUDISAT 4","type":"PAYLOAD","l1":"1 40016U 14033G   26205.31448951  .00000550  00000-0  79237-4 0  9994","l2":"2 40016  97.7628 350.1758 0043633 313.8440  45.9169 14.79583419651561"},{"id":"40018","name":"APRIZESAT 9","type":"PAYLOAD","l1":"1 40018U 14033J   26205.26627257  .00000624  00000-0  98590-4 0  9993","l2":"2 40018  97.9103 337.5678 0067455  81.3752 279.5091 14.74261966649026"},{"id":"40020","name":"BRITE TORONTO","type":"PAYLOAD","l1":"1 40020U 14033L   26205.27089625  .00001157  00000-0  18040-3 0  9991","l2":"2 40020  97.9780 333.5246 0079137 157.3013 203.1726 14.72738418647677"}]}