OBJECT_NAME,OBJECT_ID,EPOCH,MEAN_MOTION,ECCENTRICITY,INCLINATION,RA_OF_ASC_NODE,ARG_OF_PERICENTER,MEAN_ANOMALY,EPHEMERIS_TYPE,CLASSIFICATION_TYPE,NORAD_CAT_ID,ELEMENT_SET_NO,REV_AT_EPOCH,BSTAR,MEAN_MOTION_DOT,MEAN_MOTION_DDOT
CINEMA-3 (KHUSAT-2),2013-066L,2026-07-24T07:14:56.196384,14.78372482,.00913347,97.8368,116.5233,91.8924,269.2751,0,U,39426,999,67993,.19578022E-3,.1473E-4,0
TRITON-1,2013-066M,2026-07-24T07:14:08.598624,14.81822730,.00912209,97.8207,114.2589,112.8488,248.2390,0,U,39427,999,67958,.2466713E-3,.2038E-4,0
DELFI-N3XT,2013-066N,2026-07-24T07:38:25.913472,14.95451440,.00758665,97.8308,125.5991,83.3433,277.6415,0,U,39428,999,68017,.80336654E-3,.9359E-4,0
GOMX-1,2013-066Q,2026-07-24T07:04:55.021728,14.69558452,.01274252,97.6471,43.4167,318.8586,40.3066,0,U,39430,999,67536,.18578526E-3,.1196E-4,0
BRITE-PL1 (LEM),2013-066R,2026-07-24T06:46:48.763776,14.51394869,.01884401,97.7984,314.9663,255.7321,102.2885,0,U,39431,999,66931,.11802439E-3,.541E-5,0
ICUBE-1,2013-066S,2026-07-23T21:45:57.014496,15.26655182,.00155,97.5711,191.0591,193.4072,166.6757,0,U,39432,999,69001,.49115621E-3,.12858E-3,0
VELOX-PII,2013-066Y,2026-07-23T08:31:10.691040,14.93280999,.0051398,97.8761,155.7697,221.7381,137.9913,0,U,39438,999,68323,.21633E-3,.2261E-4,0
CUBEBUG-2 (LO-74),2013-066AA,2026-07-24T07:17:41.169408,14.94014397,.0055518,97.8914,154.4500,264.3624,95.1262,0,U,39440,999,68253,.28412591E-3,.306E-4,0
NEE-02 KRYSAOR,2013-066AB,2026-07-24T07:02:51.688320,14.86769248,.00646636,97.8896,144.2491,309.0576,50.4896,0,U,39441,999,68171,.23433719E-3,.2107E-4,0
FUNCUBE-1 (AO-73),2013-066AE,2026-07-23T21:47:42.327456,15.09916203,.00381192,97.8299,177.1366,79.5292,281.0228,0,U,39444,999,68520,.45787044E-3,.7483E-4,0
HINCUBE,2013-066AF,2026-07-23T20:02:21.182496,15.08676437,.00349903,97.7992,173.9219,86.5073,274.0156,0,U,39445,999,68505,.43147317E-3,.6792E-4,0
UWE-3,2013-066AG,2026-07-24T07:25:10.995456,14.97251576,.00479408,97.8728,161.6441,193.4581,166.5366,0,U,39446,999,68313,.31926471E-3,.3722E-4,0
SMDC ONE 2.4,2013-072H,2026-07-24T06:26:48.135552,15.19060399,.01483698,120.4878,135.3354,57.9586,303.5805,0,U,39469,999,12346,.79464596E-3,.22224E-3,0
CP8 (IPEX),2013-072K,2026-07-24T07:02:02.109408,15.08517861,.01698728,120.4678,79.4540,41.0959,320.2769,0,U,39471,999,12083,.4414847E-3,.9349E-4,0
COSMOS 2488 (RODNIK-S 7),2013-076A,2026-07-24T07:22:34.976928,12.42906632,.0020287,82.4857,145.5708,18.4758,341.7054,0,U,39483,999,57050,.51266719E-4,.17E-6,0
COSMOS 2489 (RODNIK-S 8),2013-076B,2026-07-24T06:47:59.798400,12.42880320,.0022101,82.4894,146.9767,18.1917,341.9949,0,U,39484,999,57055,-.33859997E-3,-.37E-6,0
COSMOS 2490 (RODNIK-S 9),2013-076C,2026-07-24T06:07:35.080032,12.42879560,.00225678,82.4840,145.0455,33.3188,326.9307,0,U,39485,999,57048,.35816512E-3,.6E-6,0
AIST-1 (RS41),2013-078C,2026-07-24T06:42:04.353120,14.96150828,.00176173,82.4136,234.9393,148.2668,211.9620,0,U,39492,999,68079,.75334955E-4,.877E-5,0
KAZEOSAT 1,2014-024A,2026-07-24T06:45:48.077280,14.42039650,.00012055,98.3190,276.8022,89.6612,270.4715,0,U,39731,999,64390,.39665069E-4,.88E-6,0
COSMOS 2496 (RODNIK-S 10),2014-028A,2026-07-24T07:02:15.459072,12.42879238,.00204702,82.4441,85.4895,1.6142,358.5000,0,U,39761,999,55212,-.8878722E-3,-.113E-5,0
COSMOS 2497 (RODNIK-S 11),2014-028B,2026-07-24T06:25:58.892736,12.42895170,.00209228,82.4490,87.2094,356.6530,3.4406,0,U,39762,999,55212,-.81220174E-3,-.103E-5,0
COSMOS 2498 (RODNIK-S 12),2014-028C,2026-07-24T07:45:56.752992,12.42981063,.00216146,82.4450,85.6456,356.0243,4.0661,0,U,39763,999,55216,-.29799648E-3,-.32E-6,0
COSMOS 2499 (RS47),2014-028E,2026-07-24T07:44:25.609632,12.82903420,.02302721,82.4464,227.3690,274.4798,83.0033,0,U,39765,999,56978,.37261871E-4,.19E-6,0
HODOYOSHI-4,2014-033B,2026-07-24T06:49:09.681312,14.88208025,.00234769,97.5471,28.3196,178.5545,181.5745,0,U,40011,999,65432,.1720134E-3,.1542E-4,0
UNISAT-6,2014-033C,2026-07-24T07:28:59.342016,14.88397654,.00436127,97.7919,357.3831,307.0835,52.6398,0,U,40012,999,65168,.25782784E-3,.2374E-4,0
DEIMOS-2,2014-033D,2026-07-24T07:02:38.848416,14.93814485,.00014804,97.5786,78.4710,104.0521,256.0864,0,U,40013,999,64326,.75377156E-4,.745E-5,0
BUGSAT-1 (TITA),2014-033E,2026-07-24T06:26:04.468992,15.15957791,.00286759,98.0427,299.9949,56.2653,304.1305,0,U,40014,999,66145,.37556164E-3,.7205E-4,0
SAUDISAT 4,2014-033G,2026-07-24T07:32:51.893664,14.79583419,.00436329,97.7628,350.1758,313.8440,45.9169,0,U,40016,999,65156,.79236807E-4,.55E-5,0
APRIZESAT 9,2014-033J,2026-07-24T06:23:25.950048,14.74261966,.00674551,97.9103,337.5678,81.3752,279.5091,0,U,40018,999,64902,.98589606E-4,.624E-5,0
BRITE-CA1 (TORONTO),2014-033L,2026-07-24T06:30:05.436000,14.72738418,.00791365,97.9780,333.5246,157.3013,203.1726,0,U,40020,999,64767,.18039674E-3,.1157E-4,0
